{"type":"FeatureCollection","features":[{"type":"Feature","id":"nkpg-kommun-0581","geometry":{"type":"Polygon","coordinates":[[[15.617541,58.644229],[15.62051,58.640492],[15.624813,58.634845],[15.625364,58.629369],[15.625598,58.626193],[15.625858,58.624483],[15.627027,58.614172],[15.641813,58.606702],[15.643536,58.606458],[15.645815,58.605002],[15.644178,58.604394],[15.649197,58.598058],[15.656256,58.594069],[15.65686,58.592785],[15.657827,58.592474],[15.658389,58.592104],[15.660632,58.588064],[15.66096,58.587663],[15.661743,58.587215],[15.662892,58.585969],[15.664506,58.585285],[15.66508,58.584443],[15.664024,58.584231],[15.663898,58.58408],[15.66273,58.583692],[15.662119,58.58336],[15.662097,58.582884],[15.662383,58.582255],[15.662414,58.581686],[15.662327,58.581514],[15.662579,58.580568],[15.662811,58.580158],[15.662616,58.579467],[15.683637,58.578281],[15.684208,58.577667],[15.685451,58.576564],[15.686449,58.576173],[15.687475,58.575233],[15.687225,58.573983],[15.686797,58.572817],[15.690368,58.569747],[15.689939,58.569264],[15.689829,58.56899],[15.690717,58.567379],[15.691644,58.566766],[15.691755,58.566156],[15.692923,58.564961],[15.692839,58.56057],[15.692018,58.560562],[15.691519,58.560343],[15.691045,58.560014],[15.6907,58.559448],[15.691043,58.55947],[15.718917,58.555989],[15.720477,58.555911],[15.719957,58.553691],[15.721428,58.553639],[15.723104,58.552321],[15.734117,58.551524],[15.743834,58.550953],[15.756665,58.551581],[15.754244,58.544699],[15.753962,58.541831],[15.756775,58.535743],[15.759092,58.529293],[15.761043,58.524353],[15.761679,58.52201],[15.759419,58.511736],[15.782698,58.514378],[15.805269,58.514178],[15.817458,58.518583],[15.830919,58.517257],[15.833511,58.515491],[15.849062,58.51759],[15.856362,58.511754],[15.875002,58.516041],[15.886384,58.51412],[15.892569,58.511759],[15.901689,58.513213],[15.917508,58.511963],[15.92097,58.504025],[15.933725,58.497002],[15.93454,58.495388],[15.932523,58.491701],[15.932083,58.491404],[15.928833,58.492659],[15.91374,58.490433],[15.90646,58.489434],[15.900298,58.488916],[15.899831,58.489433],[15.897379,58.488979],[15.898106,58.486894],[15.90021,58.485586],[15.904016,58.485211],[15.904358,58.484653],[15.9076,58.485189],[15.908851,58.483456],[15.910663,58.483757],[15.912433,58.481424],[15.91396,58.482012],[15.917496,58.481969],[15.918466,58.480183],[15.908818,58.47641],[15.909127,58.476347],[15.913452,58.478016],[15.915352,58.476149],[15.91774,58.475732],[15.91736,58.475604],[15.917798,58.475224],[15.917657,58.475148],[15.918979,58.474195],[15.921133,58.473664],[15.924605,58.474298],[15.931383,58.474845],[15.932295,58.473127],[15.935254,58.472111],[15.937361,58.472015],[15.94072,58.471171],[15.946269,58.470729],[15.94598,58.470109],[15.946007,58.46957],[15.948119,58.468846],[15.949522,58.468154],[15.95004,58.468309],[15.951903,58.4682],[15.953495,58.467605],[15.954484,58.467061],[15.95535,58.466898],[15.960665,58.467677],[15.961682,58.467602],[15.963438,58.467318],[15.963292,58.466524],[15.963383,58.464634],[15.956182,58.464516],[15.956095,58.464244],[15.955941,58.464179],[15.956806,58.463401],[15.958041,58.462839],[15.958301,58.462551],[15.958419,58.46213],[15.958457,58.460839],[15.95909,58.460483],[15.959421,58.460083],[15.961161,58.460056],[15.961095,58.459683],[15.961393,58.459672],[15.96446,58.456454],[15.965347,58.456277],[15.967025,58.455048],[15.969129,58.453063],[15.970418,58.451149],[15.976209,58.448054],[15.976665,58.448055],[15.976908,58.446974],[15.976992,58.446142],[15.976913,58.445498],[15.9775,58.445396],[15.977527,58.445244],[15.976958,58.444551],[15.976485,58.444586],[15.976413,58.444192],[15.976245,58.443875],[15.969765,58.443478],[15.96632,58.442166],[15.964842,58.442081],[15.963601,58.441864],[15.963699,58.440986],[15.961615,58.440725],[15.958529,58.44106],[15.957737,58.441002],[15.954581,58.438751],[15.954289,58.435586],[15.953474,58.435254],[15.950526,58.435935],[15.951745,58.432454],[15.952525,58.430477],[15.952674,58.429885],[15.952596,58.428274],[15.952058,58.427096],[15.963878,58.425492],[15.968023,58.424687],[15.969386,58.424357],[15.971011,58.423848],[15.978431,58.423805],[15.986983,58.426016],[15.98873,58.425961],[15.996678,58.422721],[16.006539,58.420373],[16.01577,58.418023],[16.025236,58.417939],[16.024848,58.419416],[16.024557,58.419516],[16.024716,58.420179],[16.027586,58.420524],[16.029036,58.42036],[16.030118,58.420394],[16.031206,58.41988],[16.03405,58.420547],[16.035115,58.420173],[16.036023,58.419974],[16.036596,58.419569],[16.038154,58.418825],[16.037648,58.416203],[16.040604,58.415632],[16.040549,58.418677],[16.040378,58.418803],[16.040819,58.420485],[16.04133,58.421197],[16.041874,58.423049],[16.042743,58.423218],[16.043042,58.424335],[16.042635,58.425071],[16.043103,58.427067],[16.043895,58.42733],[16.039035,58.430167],[16.033966,58.435409],[16.03419,58.435503],[16.034003,58.435795],[16.033677,58.4358],[16.033567,58.43611],[16.033071,58.436456],[16.032921,58.437278],[16.033528,58.438179],[16.034683,58.438814],[16.035751,58.439224],[16.0359,58.439551],[16.035756,58.440354],[16.035931,58.441369],[16.035887,58.441899],[16.035516,58.442476],[16.035106,58.442817],[16.036259,58.443813],[16.037397,58.443647],[16.038432,58.443749],[16.039843,58.444499],[16.040428,58.444569],[16.041379,58.444035],[16.044168,58.444726],[16.0413,58.446806],[16.038552,58.447225],[16.038809,58.447638],[16.040674,58.452233],[16.041199,58.452803],[16.043851,58.456578],[16.045627,58.458933],[16.050907,58.459556],[16.055761,58.459786],[16.063046,58.459501],[16.063643,58.45905],[16.064278,58.458976],[16.065227,58.459198],[16.067344,58.459877],[16.068243,58.460099],[16.069194,58.460217],[16.069696,58.460475],[16.073053,58.461382],[16.075814,58.461626],[16.079498,58.461816],[16.081057,58.461838],[16.083897,58.461726],[16.084363,58.462692],[16.084019,58.464579],[16.082459,58.468212],[16.082229,58.469716],[16.082279,58.470036],[16.08218,58.471711],[16.082883,58.473514],[16.082427,58.474202],[16.085223,58.474293],[16.085496,58.474573],[16.08521,58.474923],[16.085151,58.475109],[16.085156,58.475696],[16.085519,58.476183],[16.085864,58.477098],[16.086601,58.477562],[16.086891,58.477382],[16.087224,58.477852],[16.087606,58.478107],[16.088882,58.478566],[16.089872,58.48715],[16.089078,58.488697],[16.08323,58.492317],[16.083362,58.492706],[16.083672,58.492898],[16.08183,58.49354],[16.08161,58.493841],[16.081597,58.494019],[16.08185,58.494612],[16.08199,58.495537],[16.083133,58.495985],[16.084004,58.495988],[16.08481,58.495864],[16.082154,58.502764],[16.087758,58.503382],[16.103606,58.50342],[16.111115,58.503117],[16.111316,58.504849],[16.107682,58.509101],[16.107447,58.511124],[16.107391,58.512583],[16.108722,58.51267],[16.110179,58.512145],[16.111183,58.51207],[16.111601,58.512177],[16.112446,58.512666],[16.119115,58.512462],[16.119879,58.51176],[16.121805,58.511911],[16.128147,58.513748],[16.128121,58.514246],[16.128628,58.514496],[16.132434,58.513829],[16.137959,58.517815],[16.141043,58.519154],[16.140832,58.519362],[16.140204,58.519232],[16.139649,58.519857],[16.140224,58.52007],[16.139766,58.520601],[16.13992,58.521615],[16.144532,58.521191],[16.146485,58.521126],[16.147961,58.520942],[16.146733,58.519306],[16.146823,58.519077],[16.154076,58.521444],[16.155225,58.522412],[16.155863,58.522606],[16.156301,58.523666],[16.157643,58.523975],[16.159109,58.523814],[16.159466,58.524091],[16.159431,58.524373],[16.160522,58.524477],[16.161263,58.524797],[16.16132,58.525173],[16.162062,58.525719],[16.166619,58.527012],[16.167181,58.526943],[16.167551,58.526198],[16.177635,58.526736],[16.179971,58.526426],[16.181276,58.525313],[16.181767,58.524787],[16.181999,58.524404],[16.182389,58.52428],[16.182948,58.5236],[16.18253,58.52353],[16.183674,58.521641],[16.184339,58.520088],[16.199724,58.520439],[16.2085,58.520551],[16.20849,58.520217],[16.213046,58.51887],[16.226081,58.518736],[16.225911,58.520705],[16.229335,58.520815],[16.229085,58.520928],[16.245734,58.518634],[16.246163,58.523763],[16.255313,58.523362],[16.262542,58.521102],[16.266786,58.521792],[16.27586,58.515992],[16.28288,58.515692],[16.28285,58.515902],[16.283298,58.516002],[16.285297,58.516917],[16.285666,58.516997],[16.287783,58.515558],[16.288321,58.514981],[16.288637,58.514983],[16.289376,58.514312],[16.290279,58.513927],[16.291695,58.513004],[16.291602,58.51287],[16.292422,58.512437],[16.295963,58.512439],[16.296662,58.512526],[16.297248,58.512637],[16.299377,58.51368],[16.301262,58.513018],[16.303701,58.513011],[16.305206,58.513214],[16.307437,58.513953],[16.311335,58.514342],[16.317753,58.512774],[16.323362,58.512416],[16.32988,58.511251],[16.332193,58.511058],[16.334433,58.509068],[16.33646,58.509082],[16.336964,58.508757],[16.338781,58.508552],[16.339175,58.508387],[16.340028,58.508288],[16.339307,58.505935],[16.342042,58.50272],[16.34164,58.50238],[16.341684,58.50226],[16.342132,58.502147],[16.342346,58.502341],[16.343069,58.501282],[16.345157,58.500892],[16.346051,58.499446],[16.344861,58.499776],[16.343867,58.499746],[16.344721,58.498078],[16.34366,58.497234],[16.343957,58.491132],[16.340506,58.487153],[16.3375,58.487196],[16.337254,58.486299],[16.339438,58.48609],[16.339626,58.486257],[16.340314,58.486149],[16.341665,58.485694],[16.344229,58.485065],[16.345445,58.485125],[16.349221,58.484446],[16.350219,58.484186],[16.352683,58.483212],[16.353774,58.482951],[16.354097,58.482802],[16.354782,58.48271],[16.355673,58.481897],[16.356644,58.480704],[16.356447,58.47986],[16.356282,58.479763],[16.357843,58.479585],[16.363333,58.479546],[16.367659,58.479696],[16.37171,58.480035],[16.375295,58.480184],[16.378003,58.480073],[16.379929,58.479908],[16.382344,58.479567],[16.393514,58.475833],[16.398909,58.475083],[16.403576,58.474783],[16.406469,58.474705],[16.409143,58.474782],[16.411436,58.474973],[16.414685,58.47499],[16.417029,58.475324],[16.429866,58.479196],[16.449141,58.477681],[16.454954,58.474196],[16.461861,58.474503],[16.469351,58.473838],[16.471318,58.471332],[16.474056,58.471084],[16.488249,58.470688],[16.503942,58.465254],[16.531403,58.459152],[16.54466,58.453989],[16.559231,58.451549],[16.566195,58.447167],[16.575778,58.44534],[16.589597,58.442854],[16.614094,58.442996],[16.626457,58.440752],[16.635406,58.434571],[16.640736,58.436003],[16.650821,58.435484],[16.656428,58.432748],[16.658149,58.432552],[16.663883,58.432566],[16.665222,58.43242],[16.666791,58.432774],[16.673567,58.431441],[16.684181,58.427259],[16.690998,58.427769],[16.698289,58.425251],[16.701748,58.421965],[16.702178,58.417103],[16.723246,58.418925],[16.746244,58.415943],[16.757268,58.416766],[16.769315,58.414349],[16.773098,58.4152],[16.776302,58.413789],[16.783507,58.413659],[16.784688,58.416759],[16.791819,58.419988],[16.786096,58.424163],[16.7816,58.42534],[16.782208,58.426934],[16.789664,58.430009],[16.795262,58.430563],[16.799182,58.436612],[16.803185,58.437466],[16.819242,58.434701],[16.839337,58.438898],[16.85853,58.44278],[16.87115,58.467646],[16.934529,58.466898],[16.935847,58.466736],[16.937896,58.466279],[16.950127,58.462488],[16.951594,58.46206],[16.953526,58.461618],[16.955709,58.461294],[16.960203,58.460887],[16.966457,58.459612],[16.967849,58.45943],[16.977634,58.458643],[16.994774,58.458995],[16.994089,58.463804],[16.998315,58.467527],[17.103286,58.441426],[17.515647,58.40282],[17.569278,58.398981],[17.516034,58.410827],[17.148986,58.503344],[17.146501,58.532668],[17.130933,58.550069],[17.094266,58.574572],[17.06983,58.590663],[17.016421,58.590052],[17.008795,58.588409],[16.972427,58.580995],[16.942525,58.584451],[16.918877,58.595859],[16.890092,58.600994],[16.837042,58.595243],[16.827378,58.594268],[16.79654,58.607649],[16.792293,58.608959],[16.787736,58.611671],[16.783666,58.613062],[16.76336,58.621437],[16.749949,58.627099],[16.750434,58.628182],[16.750191,58.629631],[16.748939,58.629983],[16.748921,58.630184],[16.750307,58.630659],[16.751626,58.630801],[16.753467,58.630301],[16.754827,58.630384],[16.757705,58.630155],[16.758434,58.630194],[16.733736,58.643786],[16.72636,58.649229],[16.725595,58.649062],[16.724896,58.648502],[16.723424,58.647827],[16.72312,58.647901],[16.723628,58.648736],[16.723734,58.64965],[16.723909,58.650353],[16.724351,58.650772],[16.721217,58.653182],[16.716865,58.655479],[16.712704,58.657806],[16.710947,58.65923],[16.709959,58.6599],[16.709918,58.660062],[16.710074,58.660407],[16.710092,58.660766],[16.709328,58.661435],[16.709207,58.661746],[16.709261,58.66201],[16.709528,58.662374],[16.709522,58.662593],[16.70971,58.662929],[16.709624,58.663296],[16.710056,58.663562],[16.710073,58.663639],[16.709684,58.664103],[16.709831,58.66433],[16.709096,58.665045],[16.707978,58.665647],[16.706475,58.66618],[16.705538,58.666748],[16.704937,58.667504],[16.703089,58.668149],[16.702727,58.668557],[16.702219,58.669602],[16.701782,58.670045],[16.701392,58.670147],[16.700796,58.670005],[16.700541,58.670029],[16.697934,58.671183],[16.696498,58.671525],[16.691943,58.67459],[16.68978,58.675621],[16.648841,58.681875],[16.647768,58.681425],[16.6457,58.681183],[16.645474,58.68038],[16.646228,58.679415],[16.645421,58.67922],[16.644529,58.678669],[16.642556,58.676318],[16.639186,58.675522],[16.638579,58.675773],[16.638559,58.676242],[16.636056,58.679308],[16.63574,58.680205],[16.635946,58.681298],[16.634457,58.682103],[16.636011,58.682931],[16.63705,58.683624],[16.637172,58.683902],[16.636964,58.684467],[16.636971,58.68477],[16.637066,58.68499],[16.63386,58.686042],[16.63456,58.685618],[16.632752,58.685108],[16.629769,58.686473],[16.629406,58.688219],[16.628273,58.689928],[16.621261,58.691032],[16.620582,58.690083],[16.617967,58.69011],[16.617964,58.690861],[16.617261,58.691075],[16.617132,58.691036],[16.607443,58.694059],[16.584503,58.69793],[16.559018,58.697463],[16.557633,58.696784],[16.54153,58.700906],[16.510634,58.697831],[16.475002,58.696322],[16.466089,58.697524],[16.463371,58.698683],[16.462267,58.698663],[16.461081,58.697942],[16.455499,58.6978],[16.452157,58.698301],[16.427018,58.697199],[16.426973,58.698286],[16.417707,58.703048],[16.40613,58.703872],[16.399208,58.701897],[16.398715,58.702164],[16.397293,58.702605],[16.396578,58.702737],[16.39562,58.70281],[16.394136,58.702667],[16.393354,58.702737],[16.392343,58.702688],[16.389909,58.703295],[16.388436,58.703476],[16.38773,58.703708],[16.385803,58.703594],[16.385204,58.704791],[16.383814,58.705622],[16.381023,58.706275],[16.37866,58.707611],[16.37717,58.708147],[16.377551,58.709707],[16.372255,58.727142],[16.372826,58.727187],[16.373728,58.727029],[16.374175,58.727045],[16.376014,58.727408],[16.376661,58.727315],[16.377878,58.727324],[16.377404,58.727711],[16.376809,58.728549],[16.376653,58.728981],[16.376531,58.729904],[16.372414,58.731157],[16.373277,58.733453],[16.370602,58.734314],[16.372077,58.736642],[16.374534,58.74001],[16.374394,58.740425],[16.369875,58.741338],[16.368636,58.752844],[16.35736,58.759869],[16.347528,58.766242],[16.346121,58.76538],[16.343347,58.765777],[16.342776,58.766521],[16.343331,58.767761],[16.340922,58.769358],[16.338362,58.770291],[16.338121,58.770949],[16.338815,58.771464],[16.338197,58.772058],[16.327446,58.779569],[16.322215,58.775555],[16.315009,58.773201],[16.307848,58.772232],[16.30716,58.771963],[16.306956,58.771826],[16.306947,58.771619],[16.306709,58.771562],[16.30676,58.771424],[16.306376,58.771294],[16.306491,58.77115],[16.306129,58.771096],[16.30618,58.770964],[16.30599,58.77097],[16.305988,58.77086],[16.305742,58.77069],[16.305855,58.770459],[16.305737,58.770338],[16.305915,58.770172],[16.305885,58.770004],[16.305529,58.769865],[16.305356,58.769576],[16.30498,58.769355],[16.305056,58.769254],[16.30491,58.769144],[16.304951,58.768966],[16.304588,58.768334],[16.302173,58.771494],[16.295181,58.776077],[16.296039,58.775926],[16.308628,58.785471],[16.306403,58.78666],[16.306457,58.786786],[16.307458,58.786743],[16.310296,58.791539],[16.309461,58.791995],[16.308343,58.793247],[16.307793,58.793505],[16.307517,58.793816],[16.307171,58.794007],[16.306312,58.794205],[16.30481,58.795075],[16.301999,58.795668],[16.300927,58.795253],[16.297768,58.79651],[16.296281,58.798277],[16.289321,58.80071],[16.263612,58.832232],[16.219788,58.838353],[16.215878,58.837854],[16.212398,58.833609],[16.210617,58.834862],[16.204157,58.835841],[16.203097,58.835711],[16.20138,58.836092],[16.200081,58.83705],[16.198919,58.837166],[16.198318,58.837987],[16.197186,58.838758],[16.19752,58.839647],[16.197354,58.8397],[16.196659,58.839038],[16.195643,58.838897],[16.191639,58.839036],[16.192565,58.843395],[16.191437,58.846418],[16.18545,58.849942],[16.185738,58.851322],[16.182337,58.853879],[16.179332,58.844701],[16.140002,58.826699],[16.130687,58.825033],[16.130875,58.824453],[16.128413,58.824085],[16.126152,58.822932],[16.122475,58.822459],[16.121282,58.821885],[16.118623,58.820056],[16.114097,58.821944],[16.111457,58.822459],[16.103369,58.825209],[16.093262,58.817282],[16.099496,58.803443],[16.09317,58.80579],[16.089632,58.805885],[16.088997,58.804495],[16.09001,58.803361],[16.09145,58.802847],[16.092723,58.802165],[16.093434,58.801532],[16.075823,58.797903],[16.073627,58.797384],[16.072643,58.796897],[16.075873,58.793804],[16.078453,58.789667],[16.082273,58.773719],[16.082464,58.77252],[16.075418,58.772331],[16.052073,58.766035],[16.030232,58.752699],[16.01586,58.745768],[16.026314,58.73473],[16.021717,58.730351],[16.01722,58.720663],[16.014007,58.713511],[16.001389,58.707364],[15.987958,58.698752],[15.986571,58.699286],[15.986672,58.700145],[15.985693,58.700118],[15.984692,58.699587],[15.983736,58.699363],[15.983487,58.699074],[15.983683,58.69846],[15.984252,58.697899],[15.984675,58.697693],[15.985309,58.69703],[15.983282,58.693854],[15.988167,58.691805],[15.993378,58.691017],[15.992654,58.688645],[15.993013,58.687966],[15.995805,58.686683],[15.996781,58.687009],[15.997967,58.687141],[15.997979,58.685697],[15.999907,58.685764],[16.00031,58.684208],[15.999245,58.684056],[15.999682,58.683505],[15.999753,58.683281],[15.999772,58.683093],[15.999617,58.682765],[16.003457,58.682131],[16.008441,58.680913],[16.008857,58.680663],[16.009264,58.680269],[16.010838,58.679437],[16.012904,58.678661],[16.002322,58.676075],[15.996685,58.676789],[15.993445,58.67944],[15.995889,58.680858],[15.994605,58.682005],[15.992862,58.681479],[15.990811,58.681105],[15.990762,58.680893],[15.990971,58.680037],[15.991021,58.679165],[15.991122,58.678797],[15.991809,58.678019],[15.992814,58.677146],[15.992848,58.676857],[15.992759,58.676514],[15.991967,58.675758],[15.991901,58.675394],[15.988244,58.67474],[15.985649,58.675871],[15.982176,58.674261],[15.978793,58.672458],[15.977525,58.67156],[15.976538,58.67107],[15.967341,58.668449],[15.961612,58.666578],[15.957592,58.665356],[15.947205,58.663334],[15.950712,58.652028],[15.977268,58.622517],[15.921589,58.617692],[15.897774,58.615748],[15.891227,58.620601],[15.88891,58.622225],[15.8799,58.629192],[15.854591,58.632033],[15.843658,58.628664],[15.834373,58.631107],[15.821509,58.634354],[15.819799,58.634201],[15.815349,58.633246],[15.815212,58.633096],[15.814762,58.63303],[15.814374,58.63286],[15.813691,58.632794],[15.812972,58.632537],[15.811806,58.632475],[15.810661,58.632301],[15.809652,58.633173],[15.808968,58.633376],[15.800728,58.633633],[15.792229,58.632011],[15.790886,58.638979],[15.776091,58.648257],[15.76767,58.651491],[15.752555,58.653845],[15.746748,58.65411],[15.744179,58.653411],[15.740262,58.655086],[15.73187,58.656533],[15.719044,58.6546],[15.699032,58.654363],[15.690844,58.655411],[15.686823,58.656941],[15.681135,58.657522],[15.680096,58.656686],[15.674687,58.65498],[15.671224,58.653351],[15.667321,58.650927],[15.662227,58.647239],[15.658622,58.64041],[15.632151,58.640604],[15.618431,58.645042],[15.617541,58.644229]]]},"properties":{"name":{"sv":"Norrköpings kommun","en":"Norrköping Municipality"},"kommunkod":"0581","license":"ODbL-1.0","licenseUrl":"https://opendatacommons.org/licenses/odbl/1-0/","attribution":"© OpenStreetMap-bidragsgivare","source":"OpenStreetMap via Nominatim","sourceId":"relation/935447","sourceUrl":"https://www.openstreetmap.org/relation/935447","retrieved":"2026-09-19","terms":"ODbL 1.0: källangivelse krävs; härledda databaser delas under samma licens. Interim tills Lantmäteriets kommungräns (CC BY 4.0) ersätter.","provenance":{"geometrySource":"OpenStreetMap","geometryLicense":"ODbL-1.0","positionAccuracyM":10,"simplifiedToleranceDeg":5e-05,"updated":"2026-09-19"}}}]}
