{"type":"FeatureCollection","name":"badplatser-norrkoping","license":"Öppna data, Havs- och vattenmyndigheten (Badplatsen API); kuratering © Aren Mardian","attribution":"Källa: Havs- och vattenmyndigheten","retrieved":"2026-09-20","top3Method":{"weights":{"classification":0.4,"history":0.25,"facilities":0.2,"algae":0.15},"years":5,"classScore":{"1":100,"2":75,"3":40,"4":0},"note":"Se /metod. Ingen badplats i kommunen är EU-klassificerad → klassificering neutral 50. Faciliteter neutralt 50 tills kuraterade. Anmärkning = halvt avdrag. Lika poäng: fler prov vinner."},"features":[{"type":"Feature","id":"nkpg-bad-4446","geometry":{"type":"Point","coordinates":[16.94269,58.49065]},"properties":{"slug":"badholmarna","name":{"sv":"Badholmarna","en":"Badholmarna"},"fullName":"Arkösund, Badholmarna","waterBody":"Arkösund","havId":"SE0230581000004446","type":"hav","euBathingWater":false,"top3Score":69.2,"top3Parts":{"classification":50,"classificationYear":null,"history":100.0,"samples5y":17,"unfit5y":0,"remark5y":0,"algae":94.4,"algaeObservations5y":1,"facilities":50},"hasDissuasion":false,"facilities":{"sand":null,"jetty":null,"changingRoom":null,"toilet":null,"ramp":null,"parking":null,"kiosk":null,"playground":null,"lifebuoy":null,"dogFriendly":null},"accessibility":{"wheelchair":"unknown","accessibleParking":null},"contact":{"url":"www.norrkoping.se","phone":"011-150000"},"provenance":{"geometrySource":"Havs- och vattenmyndigheten","facilitiesSource":null,"positionAccuracyM":15,"updated":"2026-09-20","reviewDue":"2027-05-01"},"isTop3":false}},{"type":"Feature","id":"nkpg-bad-1747","geometry":{"type":"Point","coordinates":[16.921,58.4914]},"properties":{"slug":"nordanskogsbadet-camping","name":{"sv":"Nordanskogsbadet Camping","en":"Nordanskogsbadet Camping"},"fullName":"Arkösund, Nordanskogsbadet Camping","waterBody":"Arkösund","havId":"SE0230581000001747","type":"hav","euBathingWater":false,"top3Score":66.6,"top3Parts":{"classification":50,"classificationYear":null,"history":86.4,"samples5y":22,"unfit5y":2,"remark5y":2,"algae":100.0,"algaeObservations5y":0,"facilities":50},"hasDissuasion":false,"facilities":{"sand":null,"jetty":null,"changingRoom":null,"toilet":null,"ramp":null,"parking":null,"kiosk":null,"playground":null,"lifebuoy":null,"dogFriendly":null},"accessibility":{"wheelchair":"unknown","accessibleParking":null},"contact":{"url":"www.norrkoping.se","phone":"011-150000"},"provenance":{"geometrySource":"Havs- och vattenmyndigheten","facilitiesSource":null,"positionAccuracyM":15,"updated":"2026-09-20","reviewDue":"2027-05-01"},"isTop3":false}},{"type":"Feature","id":"nkpg-bad-4447","geometry":{"type":"Point","coordinates":[16.9416,58.4757]},"properties":{"slug":"skoldvik","name":{"sv":"Sköldvik","en":"Sköldvik"},"fullName":"Arkösund, Sköldvik","waterBody":"Arkösund","havId":"SE0230581000004447","type":"hav","euBathingWater":false,"top3Score":65.4,"top3Parts":{"classification":50,"classificationYear":null,"history":92.9,"samples5y":21,"unfit5y":1,"remark5y":1,"algae":81.0,"algaeObservations5y":4,"facilities":50},"hasDissuasion":false,"facilities":{"sand":null,"jetty":null,"changingRoom":null,"toilet":null,"ramp":null,"parking":null,"kiosk":null,"playground":null,"lifebuoy":null,"dogFriendly":null},"accessibility":{"wheelchair":"unknown","accessibleParking":null},"contact":{"url":"www.norrkoping.se","phone":"011-150000"},"provenance":{"geometrySource":"Havs- och vattenmyndigheten","facilitiesSource":null,"positionAccuracyM":15,"updated":"2026-09-20","reviewDue":"2027-05-01"},"isTop3":false}},{"type":"Feature","id":"nkpg-bad-1752","geometry":{"type":"Point","coordinates":[16.15095,58.78105]},"properties":{"slug":"bolenbadet","name":{"sv":"Bolenbadet","en":"Bolenbadet"},"fullName":"Bolen, Bolenbadet","waterBody":"Bolen","havId":"SE0230581000001752","type":"sjö","euBathingWater":false,"top3Score":70.0,"top3Parts":{"classification":50,"classificationYear":null,"history":100.0,"samples5y":17,"unfit5y":0,"remark5y":0,"algae":100.0,"algaeObservations5y":0,"facilities":50},"hasDissuasion":false,"facilities":{"sand":null,"jetty":null,"changingRoom":null,"toilet":null,"ramp":null,"parking":null,"kiosk":null,"playground":null,"lifebuoy":null,"dogFriendly":null},"accessibility":{"wheelchair":"unknown","accessibleParking":null},"contact":{"url":"www.norrkoping.se","phone":"011-150000"},"provenance":{"geometrySource":"Havs- och vattenmyndigheten","facilitiesSource":null,"positionAccuracyM":15,"updated":"2026-09-20","reviewDue":"2027-05-01"},"isTop3":true,"top3Rank":2,"top3Rationale":{"sv":"Klassificering 50/100 (ej klassificerad), 17 prov senaste 5 åren varav 0 otjänliga och 0 med anmärkning, 0 algobservationer. Faciliteter ej kuraterade ännu (neutralt 50).","en":"Classification 50/100 (not classified), 17 samples in the last 5 years of which 0 unfit and 0 with remarks, 0 algae observations. Facilities not yet curated (neutral 50)."}}},{"type":"Feature","id":"nkpg-bad-1737","geometry":{"type":"Point","coordinates":[16.6306,58.6382]},"properties":{"slug":"kvarsebobadet","name":{"sv":"Kvarsebobadet","en":"Kvarsebobadet"},"fullName":"Bråviken, Kvarsebobadet","waterBody":"Bråviken","havId":"SE0230581000001737","type":"hav","euBathingWater":false,"top3Score":69.2,"top3Parts":{"classification":50,"classificationYear":null,"history":100.0,"samples5y":17,"unfit5y":0,"remark5y":0,"algae":94.4,"algaeObservations5y":1,"facilities":50},"hasDissuasion":false,"facilities":{"sand":null,"jetty":null,"changingRoom":null,"toilet":null,"ramp":null,"parking":null,"kiosk":null,"playground":null,"lifebuoy":null,"dogFriendly":null},"accessibility":{"wheelchair":"unknown","accessibleParking":null},"contact":{"url":"www.norrkoping.se","phone":"011-150000"},"provenance":{"geometrySource":"Havs- och vattenmyndigheten","facilitiesSource":null,"positionAccuracyM":15,"updated":"2026-09-20","reviewDue":"2027-05-01"},"isTop3":false}},{"type":"Feature","id":"nkpg-bad-1732","geometry":{"type":"Point","coordinates":[16.2644,58.6089]},"properties":{"slug":"lindobadet","name":{"sv":"Lindöbadet","en":"Lindöbadet"},"fullName":"Bråviken, Lindöbadet","waterBody":"Bråviken","havId":"SE0230581000001732","type":"hav","euBathingWater":false,"top3Score":58.4,"top3Parts":{"classification":50,"classificationYear":null,"history":64.1,"samples5y":32,"unfit5y":8,"remark5y":7,"algae":82.4,"algaeObservations5y":6,"facilities":50},"hasDissuasion":false,"facilities":{"sand":null,"jetty":null,"changingRoom":null,"toilet":null,"ramp":null,"parking":null,"kiosk":null,"playground":null,"lifebuoy":null,"dogFriendly":null},"accessibility":{"wheelchair":"unknown","accessibleParking":null},"contact":{"url":"www.norrkoping.se","phone":"011-150000"},"provenance":{"geometrySource":"Havs- och vattenmyndigheten","facilitiesSource":null,"positionAccuracyM":15,"updated":"2026-09-20","reviewDue":"2027-05-01"},"isTop3":false}},{"type":"Feature","id":"nkpg-bad-1748","geometry":{"type":"Point","coordinates":[16.34761,58.69689]},"properties":{"slug":"boksjobadet","name":{"sv":"Böksjöbadet","en":"Böksjöbadet"},"fullName":"Böksjön, Böksjöbadet","waterBody":"Böksjön","havId":"SE0230581000001748","type":"sjö","euBathingWater":false,"top3Score":70.0,"top3Parts":{"classification":50,"classificationYear":null,"history":100.0,"samples5y":17,"unfit5y":0,"remark5y":0,"algae":100.0,"algaeObservations5y":0,"facilities":50},"hasDissuasion":false,"facilities":{"sand":null,"jetty":null,"changingRoom":null,"toilet":null,"ramp":null,"parking":null,"kiosk":null,"playground":null,"lifebuoy":null,"dogFriendly":null},"accessibility":{"wheelchair":"unknown","accessibleParking":null},"contact":{"url":"www.norrkoping.se","phone":"011-150000"},"provenance":{"geometrySource":"Havs- och vattenmyndigheten","facilitiesSource":null,"positionAccuracyM":15,"updated":"2026-09-20","reviewDue":"2027-05-01"},"isTop3":true,"top3Rank":3,"top3Rationale":{"sv":"Klassificering 50/100 (ej klassificerad), 17 prov senaste 5 åren varav 0 otjänliga och 0 med anmärkning, 0 algobservationer. Faciliteter ej kuraterade ännu (neutralt 50).","en":"Classification 50/100 (not classified), 17 samples in the last 5 years of which 0 unfit and 0 with remarks, 0 algae observations. Facilities not yet curated (neutral 50)."}}},{"type":"Feature","id":"nkpg-bad-5959","geometry":{"type":"Point","coordinates":[16.4755,58.4826]},"properties":{"slug":"dalbystrand","name":{"sv":"Dalbystrand","en":"Dalbystrand"},"fullName":"Dalbystrand","waterBody":null,"havId":"SE0230581000005959","type":"sjö","euBathingWater":false,"top3Score":69.2,"top3Parts":{"classification":50,"classificationYear":null,"history":100.0,"samples5y":18,"unfit5y":0,"remark5y":0,"algae":94.7,"algaeObservations5y":1,"facilities":50},"hasDissuasion":false,"facilities":{"sand":null,"jetty":null,"changingRoom":null,"toilet":null,"ramp":null,"parking":null,"kiosk":null,"playground":null,"lifebuoy":null,"dogFriendly":null},"accessibility":{"wheelchair":"unknown","accessibleParking":null},"contact":{"url":"www.norrkoping.se","phone":"011-150000"},"provenance":{"geometrySource":"Havs- och vattenmyndigheten","facilitiesSource":null,"positionAccuracyM":15,"updated":"2026-09-20","reviewDue":"2027-05-01"},"isTop3":false}},{"type":"Feature","id":"nkpg-bad-1740","geometry":{"type":"Point","coordinates":[16.2157,58.5472]},"properties":{"slug":"ensjobadet","name":{"sv":"Ensjöbadet","en":"Ensjöbadet"},"fullName":"Ensjön, Ensjöbadet","waterBody":"Ensjön","havId":"SE0230581000001740","type":"sjö","euBathingWater":false,"top3Score":57.3,"top3Parts":{"classification":50,"classificationYear":null,"history":75.0,"samples5y":28,"unfit5y":3,"remark5y":8,"algae":57.1,"algaeObservations5y":15,"facilities":50},"hasDissuasion":false,"facilities":{"sand":null,"jetty":null,"changingRoom":null,"toilet":null,"ramp":null,"parking":null,"kiosk":null,"playground":null,"lifebuoy":null,"dogFriendly":null},"accessibility":{"wheelchair":"unknown","accessibleParking":null},"contact":{"url":"www.norrkoping.se","phone":"011-150000"},"provenance":{"geometrySource":"Havs- och vattenmyndigheten","facilitiesSource":null,"positionAccuracyM":15,"updated":"2026-09-20","reviewDue":"2027-05-01"},"isTop3":false}},{"type":"Feature","id":"nkpg-bad-1730","geometry":{"type":"Point","coordinates":[16.01961,58.64937]},"properties":{"slug":"skarsatter","name":{"sv":"Skarsätter","en":"Skarsätter"},"fullName":"Glan, Skarsätter","waterBody":"Glan","havId":"SE0230581000001730","type":"sjö","euBathingWater":false,"top3Score":66.5,"top3Parts":{"classification":50,"classificationYear":null,"history":97.4,"samples5y":19,"unfit5y":0,"remark5y":1,"algae":81.0,"algaeObservations5y":4,"facilities":50},"hasDissuasion":false,"facilities":{"sand":null,"jetty":null,"changingRoom":null,"toilet":null,"ramp":null,"parking":null,"kiosk":null,"playground":null,"lifebuoy":null,"dogFriendly":null},"accessibility":{"wheelchair":"unknown","accessibleParking":null},"contact":{"url":"www.norrkoping.se","phone":"011-150000"},"provenance":{"geometrySource":"Havs- och vattenmyndigheten","facilitiesSource":null,"positionAccuracyM":15,"updated":"2026-09-20","reviewDue":"2027-05-01"},"isTop3":false}},{"type":"Feature","id":"nkpg-bad-6660","geometry":{"type":"Point","coordinates":[16.2006,58.5948]},"properties":{"slug":"inre-hamn-motala-strom","name":{"sv":"Inre hamn/ Motala ström","en":"Inre hamn/ Motala ström"},"fullName":"Inre hamn/ Motala ström","waterBody":null,"havId":"SE0230581000006660","type":"å","euBathingWater":false,"top3Score":60.9,"top3Parts":{"classification":50,"classificationYear":null,"history":74.1,"samples5y":29,"unfit5y":0,"remark5y":15,"algae":82.8,"algaeObservations5y":5,"facilities":50},"hasDissuasion":true,"facilities":{"sand":null,"jetty":null,"changingRoom":null,"toilet":null,"ramp":null,"parking":null,"kiosk":null,"playground":null,"lifebuoy":null,"dogFriendly":null},"accessibility":{"wheelchair":"unknown","accessibleParking":null},"contact":{"url":"www.norrkoping.se","phone":"011-150000"},"provenance":{"geometrySource":"Havs- och vattenmyndigheten","facilitiesSource":null,"positionAccuracyM":15,"updated":"2026-09-20","reviewDue":"2027-05-01"},"isTop3":false}},{"type":"Feature","id":"nkpg-bad-7560","geometry":{"type":"Point","coordinates":[16.2,58.5951]},"properties":{"slug":"plaskdammen","name":{"sv":"plaskdammen","en":"plaskdammen"},"fullName":"Inre hamnen, plaskdammen","waterBody":"Inre hamnen","havId":"SE0230581000007560","type":"sjö","euBathingWater":false,"top3Score":46.8,"top3Parts":{"classification":50,"classificationYear":null,"history":7.1,"samples5y":7,"unfit5y":6,"remark5y":1,"algae":100.0,"algaeObservations5y":0,"facilities":50},"hasDissuasion":true,"facilities":{"sand":null,"jetty":null,"changingRoom":null,"toilet":null,"ramp":null,"parking":null,"kiosk":null,"playground":null,"lifebuoy":null,"dogFriendly":null},"accessibility":{"wheelchair":"unknown","accessibleParking":null},"contact":{"url":"www.norrkoping.se","phone":"011-150000"},"provenance":{"geometrySource":"Havs- och vattenmyndigheten","facilitiesSource":null,"positionAccuracyM":15,"updated":"2026-09-20","reviewDue":"2027-05-01"},"isTop3":false}},{"type":"Feature","id":"nkpg-bad-1749","geometry":{"type":"Point","coordinates":[16.32281,58.71135]},"properties":{"slug":"lilla-algsjon","name":{"sv":"Lilla Älgsjön","en":"Lilla Älgsjön"},"fullName":"Lilla Älgsjön","waterBody":null,"havId":"SE0230581000001749","type":"sjö","euBathingWater":false,"top3Score":70.0,"top3Parts":{"classification":50,"classificationYear":null,"history":100.0,"samples5y":17,"unfit5y":0,"remark5y":0,"algae":100.0,"algaeObservations5y":0,"facilities":50},"hasDissuasion":false,"facilities":{"sand":null,"jetty":null,"changingRoom":null,"toilet":null,"ramp":null,"parking":null,"kiosk":null,"playground":null,"lifebuoy":null,"dogFriendly":null},"accessibility":{"wheelchair":"unknown","accessibleParking":null},"contact":{"url":"www.norrkoping.se","phone":"011-150000"},"provenance":{"geometrySource":"Havs- och vattenmyndigheten","facilitiesSource":null,"positionAccuracyM":15,"updated":"2026-09-20","reviewDue":"2027-05-01"},"isTop3":false}},{"type":"Feature","id":"nkpg-bad-1750","geometry":{"type":"Point","coordinates":[16.1462,58.6586]},"properties":{"slug":"lillsjobadet","name":{"sv":"Lillsjöbadet","en":"Lillsjöbadet"},"fullName":"Lillsjöbadet","waterBody":null,"havId":"SE0230581000001750","type":"sjö","euBathingWater":false,"top3Score":70.0,"top3Parts":{"classification":50,"classificationYear":null,"history":100.0,"samples5y":18,"unfit5y":0,"remark5y":0,"algae":100.0,"algaeObservations5y":0,"facilities":50},"hasDissuasion":false,"facilities":{"sand":null,"jetty":null,"changingRoom":null,"toilet":null,"ramp":null,"parking":null,"kiosk":null,"playground":null,"lifebuoy":null,"dogFriendly":null},"accessibility":{"wheelchair":"unknown","accessibleParking":null},"contact":{"url":"www.norrkoping.se","phone":"011-150000"},"provenance":{"geometrySource":"Havs- och vattenmyndigheten","facilitiesSource":null,"positionAccuracyM":15,"updated":"2026-09-20","reviewDue":"2027-05-01"},"isTop3":true,"top3Rank":1,"top3Rationale":{"sv":"Klassificering 50/100 (ej klassificerad), 18 prov senaste 5 åren varav 0 otjänliga och 0 med anmärkning, 0 algobservationer. Faciliteter ej kuraterade ännu (neutralt 50).","en":"Classification 50/100 (not classified), 18 samples in the last 5 years of which 0 unfit and 0 with remarks, 0 algae observations. Facilities not yet curated (neutral 50)."}}},{"type":"Feature","id":"nkpg-bad-1746","geometry":{"type":"Point","coordinates":[15.8708,58.5842]},"properties":{"slug":"marangsbadet","name":{"sv":"Mårängsbadet","en":"Mårängsbadet"},"fullName":"Mårn, Mårängsbadet","waterBody":"Mårn","havId":"SE0230581000001746","type":"sjö","euBathingWater":false,"top3Score":69.3,"top3Parts":{"classification":50,"classificationYear":null,"history":97.1,"samples5y":17,"unfit5y":0,"remark5y":1,"algae":100.0,"algaeObservations5y":0,"facilities":50},"hasDissuasion":false,"facilities":{"sand":null,"jetty":null,"changingRoom":null,"toilet":null,"ramp":null,"parking":null,"kiosk":null,"playground":null,"lifebuoy":null,"dogFriendly":null},"accessibility":{"wheelchair":"unknown","accessibleParking":null},"contact":{"url":"www.norrkoping.se","phone":"011-150000"},"provenance":{"geometrySource":"Havs- och vattenmyndigheten","facilitiesSource":null,"positionAccuracyM":15,"updated":"2026-09-20","reviewDue":"2027-05-01"},"isTop3":false}},{"type":"Feature","id":"nkpg-bad-1754","geometry":{"type":"Point","coordinates":[16.2001,58.6788]},"properties":{"slug":"nedre-glottern-gransjonasbadet","name":{"sv":"Nedre Glottern Gransjönäsbadet","en":"Nedre Glottern Gransjönäsbadet"},"fullName":"Nedre Glottern Gransjönäsbadet","waterBody":null,"havId":"SE0230581000001754","type":"sjö","euBathingWater":false,"top3Score":70.0,"top3Parts":{"classification":50,"classificationYear":null,"history":100.0,"samples5y":17,"unfit5y":0,"remark5y":0,"algae":100.0,"algaeObservations5y":0,"facilities":50},"hasDissuasion":false,"facilities":{"sand":null,"jetty":null,"changingRoom":null,"toilet":null,"ramp":null,"parking":null,"kiosk":null,"playground":null,"lifebuoy":null,"dogFriendly":null},"accessibility":{"wheelchair":"unknown","accessibleParking":null},"contact":{"url":"www.norrkoping.se","phone":"011-150000"},"provenance":{"geometrySource":"Havs- och vattenmyndigheten","facilitiesSource":null,"positionAccuracyM":15,"updated":"2026-09-20","reviewDue":"2027-05-01"},"isTop3":false}},{"type":"Feature","id":"nkpg-bad-1743","geometry":{"type":"Point","coordinates":[16.6033,58.4441]},"properties":{"slug":"stegeborgsgarden","name":{"sv":"Stegeborgsgården","en":"Stegeborgsgården"},"fullName":"Slätbaken, Stegeborgsgården","waterBody":"Slätbaken","havId":"SE0230581000001743","type":"hav","euBathingWater":false,"top3Score":70.0,"top3Parts":{"classification":50,"classificationYear":null,"history":100.0,"samples5y":17,"unfit5y":0,"remark5y":0,"algae":100.0,"algaeObservations5y":0,"facilities":50},"hasDissuasion":false,"facilities":{"sand":null,"jetty":null,"changingRoom":null,"toilet":null,"ramp":null,"parking":null,"kiosk":null,"playground":null,"lifebuoy":null,"dogFriendly":null},"accessibility":{"wheelchair":"unknown","accessibleParking":null},"contact":{"url":"www.norrkoping.se","phone":"011-150000"},"provenance":{"geometrySource":"Havs- och vattenmyndigheten","facilitiesSource":null,"positionAccuracyM":15,"updated":"2026-09-20","reviewDue":"2027-05-01"},"isTop3":false}},{"type":"Feature","id":"nkpg-bad-1753","geometry":{"type":"Point","coordinates":[16.084,58.7236]},"properties":{"slug":"sorsjobadet","name":{"sv":"Sörsjöbadet","en":"Sörsjöbadet"},"fullName":"Sörsjöbadet","waterBody":null,"havId":"SE0230581000001753","type":"sjö","euBathingWater":false,"top3Score":68.5,"top3Parts":{"classification":50,"classificationYear":null,"history":94.1,"samples5y":17,"unfit5y":0,"remark5y":2,"algae":100.0,"algaeObservations5y":0,"facilities":50},"hasDissuasion":false,"facilities":{"sand":null,"jetty":null,"changingRoom":null,"toilet":null,"ramp":null,"parking":null,"kiosk":null,"playground":null,"lifebuoy":null,"dogFriendly":null},"accessibility":{"wheelchair":"unknown","accessibleParking":null},"contact":{"url":"www.norrkoping.se","phone":"011-150000"},"provenance":{"geometrySource":"Havs- och vattenmyndigheten","facilitiesSource":null,"positionAccuracyM":15,"updated":"2026-09-20","reviewDue":"2027-05-01"},"isTop3":false}},{"type":"Feature","id":"nkpg-bad-3968","geometry":{"type":"Point","coordinates":[16.1191,58.6758]},"properties":{"slug":"agelsjon","name":{"sv":"Ågelsjön","en":"Ågelsjön"},"fullName":"Ågelsjön","waterBody":null,"havId":"SE0230581000003968","type":"sjö","euBathingWater":false,"top3Score":70.0,"top3Parts":{"classification":50,"classificationYear":null,"history":100.0,"samples5y":17,"unfit5y":0,"remark5y":0,"algae":100.0,"algaeObservations5y":0,"facilities":50},"hasDissuasion":false,"facilities":{"sand":null,"jetty":null,"changingRoom":null,"toilet":null,"ramp":null,"parking":null,"kiosk":null,"playground":null,"lifebuoy":null,"dogFriendly":null},"accessibility":{"wheelchair":"unknown","accessibleParking":null},"contact":{"url":"www.norrkoping.se","phone":"011-150000"},"provenance":{"geometrySource":"Havs- och vattenmyndigheten","facilitiesSource":null,"positionAccuracyM":15,"updated":"2026-09-20","reviewDue":"2027-05-01"},"isTop3":false}}]}
